{"type":"FeatureCollection","meta":{"jica":"JICA / OYO International, The Study on Earthquake Disaster Risk Management for Almaty City, Final Report Vol.1, September 2009, Figure 2.3.1 и Table 2.3.1","gem":"GEM Global Active Faults Database (CC BY-SA), региональный масштаб","accuracy":"Очаги оцифрованы по координатной сетке рисунка; контроль — длина Чиликского очага 201 км против 200 км по таблице (0,5%). Это очаги региональных землетрясений, а не городские разломы.","city":"Frontiers in Built Environment, 2024, doi 10.3389/fbuil.2024.1502403, рис. 1(b), CC BY 4.0. Городская сеть разломов, оцифрована по границе города; медианное расхождение привязки 281 м, 90-й перцентиль 913 м — по конкретному дому судить нельзя."},"features":[{"type":"Feature","geometry":{"type":"LineString","coordinates":[[76.82,43.045],[77.146,43.151]]},"properties":{"src":"jica","name":"Верненское землетрясение, 1887","mw":7.3,"len_km":30,"note":"Модель очага сценарного землетрясения. Длина по паспорту 30 км, по оцифровке 29 км."}},{"type":"Feature","geometry":{"type":"LineString","coordinates":[[75.86,42.594],[76.941,42.815],[77.68,42.759]]},"properties":{"src":"jica","name":"Кеминское землетрясение, 1911","mw":8.2,"len_km":175,"note":"Модель очага сценарного землетрясения. Длина по паспорту 175 км, по оцифровке 152 км."}},{"type":"Feature","geometry":{"type":"LineString","coordinates":[[78.062,42.946],[80.331,43.677]]},"properties":{"src":"jica","name":"Чиликское землетрясение, 1889","mw":8.3,"len_km":200,"note":"Модель очага сценарного землетрясения. Длина по паспорту 200 км, по оцифровке 201 км."}},{"type":"Feature","properties":{"src":"gem","name":"Активный разлом","slip":"Anticline"},"geometry":{"type":"LineString","coordinates":[[77.67358951180415,43.9874432369403],[77.9196859513978,43.98020510636402],[78.10425828109302,44.02363388982172],[78.20197304387285,44.096015195584556],[78.35759285126295,44.182872762499954],[78.58559396441589,44.17563463192367]]}},{"type":"Feature","properties":{"src":"gem","name":"Активный разлом","slip":"Anticline"},"geometry":{"type":"LineString","coordinates":[[78.17591577379825,42.688198798497396],[78.37496436464605,42.684579733209254],[78.54144136790057,42.70267505964996],[78.6825849141381,42.713532255514394]]}},{"type":"Feature","properties":{"src":"gem","name":"Активный разлом","slip":"Reverse"},"geometry":{"type":"LineString","coordinates":[[78.36410716878163,43.46629783544789],[78.13248699034055,43.49163129246488],[77.9551527912216,43.49163129246488],[77.78867578796708,43.480774096600456],[77.6692466334584,43.42648811727833],[77.531722152509,43.40477372554948],[77.41591206328846,43.39753559497319],[77.23495879888138,43.40115466026134]]}},{"type":"Feature","properties":{"src":"gem","name":"Активный разлом","slip":"Reverse"},"geometry":{"type":"LineString","coordinates":[[77.25305412532208,43.292582701617086],[77.08657712206757,43.30343989748151],[76.97076703284702,43.281725505752654],[76.89476666179604,43.1984870041254],[76.81514722545693,43.18762980826097],[76.64143209162611,43.162296351243974],[76.51114574125302,43.162296351243974],[76.39533565203247,43.165915416532116],[76.21800145291353,43.13696289422698],[76.1202866901337,43.11162943720999],[75.99361940504873,43.10077224134557]]}},{"type":"Feature","properties":{"src":"gem","name":"Активный разлом","slip":"Anticline"},"geometry":{"type":"LineString","coordinates":[[79.03363424708786,43.361344942091776],[78.83096659095192,43.34324961565107],[78.66087052240925,43.29982083219337],[78.52696510674801,43.29982083219337],[78.38220249522233,43.29982083219337],[78.26277334071365,43.30705896276965],[78.16505857793382,43.25639204873566],[78.07820101101842,43.22743952643053]]}},{"type":"Feature","properties":{"src":"gem","name":"Активный разлом","slip":"Reverse"},"geometry":{"type":"LineString","coordinates":[[77.54981747894972,42.832961410023074],[77.82848550613663,42.74610384310767],[78.01667690112001,42.74248477781953],[78.13610605562869,42.77143730012466],[78.23020175312037,42.807627953006076],[78.32429745061206,42.79677075714165],[78.45096473569703,42.81486608358236],[78.50525071501916,42.82210421415864],[78.74772808932465,42.76781823483652],[78.8816335049859,42.74248477781953]]}},{"type":"Feature","properties":{"src":"gem","name":"Активный разлом","slip":"Reverse"},"geometry":{"type":"LineString","coordinates":[[76.36276406443919,42.61219842744642],[76.54733639413443,42.619436558022706],[76.6486702222024,42.65562721090412],[76.77533750728736,42.64838908032784],[76.87305227006719,42.65924627619226],[77.021433946881,42.67734160263297],[77.21686347244066,42.67734160263297],[77.39057860627148,42.72438945137882],[77.54619841366157,42.7750563654128]]}},{"type":"Feature","properties":{"src":"gem","name":"Активный разлом","slip":"Reverse"},"geometry":{"type":"LineString","coordinates":[[75.94295249101475,42.50362646880217],[76.16733453887954,42.543436186971725],[76.27590649752379,42.601341231582],[76.34828780328662,42.65924627619226],[76.35914499915106,42.662865341480405],[76.37724032559176,42.688198798497396],[76.38809752145619,42.688198798497396]]}},{"type":"Feature","properties":{"src":"gem","name":"Issyk Atta Fault","slip":"Reverse"},"geometry":{"type":"LineString","coordinates":[[75.73574044975811,42.77167823079697],[75.41671192914595,42.69723824265413],[75.25188052682967,42.69723824265413],[75.06046341446236,42.71318966868474],[74.78397202993182,42.77699537280717],[74.59255491756451,42.81421536687859],[74.35328352710539,42.81421536687859],[74.15123213071769,42.77167823079697],[73.9917178704116,42.71850681069494],[73.8003007580443,42.707872526674535],[73.64610363974842,42.71318966868474],[73.46000366939133,42.79294679883778],[73.29517226707505,42.79826394084799],[73.09312087068733,42.79826394084799],[72.96019232043227,42.79826394084799],[72.50291810755483,42.84080107692961]]}},{"type":"Feature","properties":{"src":"gem","name":"Активный разлом","slip":"Anticline"},"geometry":{"type":"LineString","coordinates":[[74.87702201511038,43.09602389341934],[75.1003419795389,43.09602389341934],[75.25453909783478,43.12792674548056],[75.38215050607965,43.13856102950096],[75.50976191432451,43.12260960347035],[75.74371616277344,43.03753533130711],[75.82347329292648,43.032218189296906]]}},{"type":"Feature","properties":{"src":"gem","name":"Активный разлом","slip":"Anticline"},"geometry":{"type":"LineString","coordinates":[[75.30771051793681,42.89397249703163],[75.45659049422248,42.909923923062244],[75.60015332849797,42.91524106507244],[75.70117902669182,42.96309534316427],[75.78093615684486,42.96309534316427]]}},{"type":"Feature","geometry":{"type":"LineString","coordinates":[[77.03215,43.45066],[77.03381,43.44862],[77.03055,43.45525],[77.03084,43.45254],[77.03667,43.44236],[77.0408,43.43593],[77.04164,43.43334],[77.04397,43.43177]]},"properties":{"src":"city","name":"Разлом (городская сеть)","note":"Оцифровано с рис. 1(b) статьи Frontiers in Built Environment 2024 (CC BY 4.0). Привязка по границе города: медианное расхождение 281 м, 90-й перцентиль 913 м."}},{"type":"Feature","geometry":{"type":"LineString","coordinates":[[76.72593,43.45082],[76.73408,43.45478],[76.72426,43.44893],[76.71897,43.44497],[76.71357,43.43836],[76.71098,43.43766],[76.70902,43.43481],[76.70646,43.43407]]},"properties":{"src":"city","name":"Разлом (городская сеть)","note":"Оцифровано с рис. 1(b) статьи Frontiers in Built Environment 2024 (CC BY 4.0). Привязка по границе города: медианное расхождение 281 м, 90-й перцентиль 913 м."}},{"type":"Feature","geometry":{"type":"LineString","coordinates":[[77.17047,43.45311],[77.17375,43.45467],[77.15831,43.44646],[77.15032,43.44345],[77.14781,43.44193],[77.14565,43.44078],[77.14233,43.44001],[77.14078,43.43793]]},"properties":{"src":"city","name":"Разлом (городская сеть)","note":"Оцифровано с рис. 1(b) статьи Frontiers in Built Environment 2024 (CC BY 4.0). Привязка по границе города: медианное расхождение 281 м, 90-й перцентиль 913 м."}},{"type":"Feature","geometry":{"type":"LineString","coordinates":[[77.20416,43.4485],[77.21177,43.45207],[77.19618,43.44469],[77.1893,43.44064],[77.18591,43.43921],[77.18179,43.43702],[77.16941,43.42925],[77.16704,43.42771],[77.16176,43.42445],[77.15776,43.42222],[77.15196,43.418],[77.14927,43.41618],[77.14255,43.41261],[77.1402,43.41103],[77.13482,43.40914],[77.13344,43.407]]},"properties":{"src":"city","name":"Разлом (городская сеть)","note":"Оцифровано с рис. 1(b) статьи Frontiers in Built Environment 2024 (CC BY 4.0). Привязка по границе города: медианное расхождение 281 м, 90-й перцентиль 913 м."}},{"type":"Feature","geometry":{"type":"LineString","coordinates":[[76.93343,43.43836],[76.91636,43.4294],[76.93612,43.44097],[76.95155,43.45113]]},"properties":{"src":"city","name":"Разлом (городская сеть)","note":"Оцифровано с рис. 1(b) статьи Frontiers in Built Environment 2024 (CC BY 4.0). Привязка по границе города: медианное расхождение 281 м, 90-й перцентиль 913 м."}},{"type":"Feature","geometry":{"type":"LineString","coordinates":[[76.98941,43.4379],[76.99534,43.44598],[76.98769,43.44188],[76.97089,43.417],[76.97053,43.41444],[76.96932,43.41257],[76.96354,43.41403],[76.95941,43.40925],[76.95626,43.40622],[76.95296,43.40186],[76.9514,43.39912],[76.94596,43.39393],[76.96005,43.40181],[76.96288,43.4036]]},"properties":{"src":"city","name":"Разлом (городская сеть)","note":"Оцифровано с рис. 1(b) статьи Frontiers in Built Environment 2024 (CC BY 4.0). Привязка по границе города: медианное расхождение 281 м, 90-й перцентиль 913 м."}},{"type":"Feature","geometry":{"type":"LineString","coordinates":[[77.00874,43.44193],[77.01012,43.43979],[77.01297,43.43318],[77.0136,43.43048],[77.01116,43.43585],[77.01579,43.4239],[77.01674,43.42192],[77.01783,43.41985],[77.01824,43.41648]]},"properties":{"src":"city","name":"Разлом (городская сеть)","note":"Оцифровано с рис. 1(b) статьи Frontiers in Built Environment 2024 (CC BY 4.0). Привязка по границе города: медианное расхождение 281 м, 90-й перцентиль 913 м."}},{"type":"Feature","geometry":{"type":"LineString","coordinates":[[77.1348,43.43614],[77.13765,43.43673],[77.12819,43.43157],[77.12063,43.42794],[77.11423,43.42352],[77.11057,43.42277],[77.10847,43.42061],[77.0855,43.41056]]},"properties":{"src":"city","name":"Разлом (городская сеть)","note":"Оцифровано с рис. 1(b) статьи Frontiers in Built Environment 2024 (CC BY 4.0). Привязка по границе города: медианное расхождение 281 м, 90-й перцентиль 913 м."}},{"type":"Feature","geometry":{"type":"LineString","coordinates":[[77.04411,43.42985],[77.05025,43.41852],[77.04274,43.41179]]},"properties":{"src":"city","name":"Разлом (городская сеть)","note":"Оцифровано с рис. 1(b) статьи Frontiers in Built Environment 2024 (CC BY 4.0). Привязка по границе города: медианное расхождение 281 м, 90-й перцентиль 913 м."}},{"type":"Feature","geometry":{"type":"LineString","coordinates":[[76.7832,43.3764],[76.75414,43.36704],[76.78966,43.37692],[76.787,43.37661],[76.80238,43.38091],[76.79307,43.37843],[76.81216,43.38226],[76.80694,43.38174],[76.83041,43.38608],[76.82511,43.38508],[76.83998,43.38846],[76.83383,43.38751],[76.84682,43.3915],[76.84335,43.39087],[76.85194,43.39374],[76.84935,43.39307],[76.8659,43.403],[76.85542,43.39573],[76.87697,43.41316],[76.87466,43.41098],[76.88232,43.41633],[76.87955,43.41526],[76.88569,43.41981],[76.89093,43.42376],[76.88765,43.42219],[76.90299,43.42249],[76.91452,43.42744]]},"properties":{"src":"city","name":"Разлом (городская сеть)","note":"Оцифровано с рис. 1(b) статьи Frontiers in Built Environment 2024 (CC BY 4.0). Привязка по границе города: медианное расхождение 281 м, 90-й перцентиль 913 м."}},{"type":"Feature","geometry":{"type":"LineString","coordinates":[[77.04533,43.4097],[77.07573,43.39829],[77.0687,43.38672],[77.06764,43.38888],[77.0663,43.39167]]},"properties":{"src":"city","name":"Разлом (городская сеть)","note":"Оцифровано с рис. 1(b) статьи Frontiers in Built Environment 2024 (CC BY 4.0). Привязка по границе города: медианное расхождение 281 м, 90-й перцентиль 913 м."}},{"type":"Feature","geometry":{"type":"LineString","coordinates":[[77.24886,43.41202],[77.25585,43.41664],[77.24635,43.41118],[77.24497,43.40905],[77.24095,43.40852],[77.24019,43.40632]]},"properties":{"src":"city","name":"Разлом (городская сеть)","note":"Оцифровано с рис. 1(b) статьи Frontiers in Built Environment 2024 (CC BY 4.0). Привязка по границе города: медианное расхождение 281 м, 90-й перцентиль 913 м."}},{"type":"Feature","geometry":{"type":"LineString","coordinates":[[76.66597,43.40294],[76.66339,43.40224],[76.67636,43.41242],[76.67775,43.41456],[76.67272,43.4105],[76.66875,43.40564],[76.65976,43.39583],[76.65723,43.39443],[76.65295,43.38836],[76.65033,43.38705]]},"properties":{"src":"city","name":"Разлом (городская сеть)","note":"Оцифровано с рис. 1(b) статьи Frontiers in Built Environment 2024 (CC BY 4.0). Привязка по границе города: медианное расхождение 281 м, 90-й перцентиль 913 м."}},{"type":"Feature","geometry":{"type":"LineString","coordinates":[[77.03619,43.41014],[77.03885,43.41042],[77.03284,43.40904],[77.02935,43.40774],[77.02663,43.408],[77.01274,43.4041],[77.01026,43.40328],[77.00675,43.40283],[77.02241,43.40076]]},"properties":{"src":"city","name":"Разлом (городская сеть)","note":"Оцифровано с рис. 1(b) статьи Frontiers in Built Environment 2024 (CC BY 4.0). Привязка по границе города: медианное расхождение 281 м, 90-й перцентиль 913 м."}},{"type":"Feature","geometry":{"type":"LineString","coordinates":[[77.09856,43.39107],[77.10721,43.39575],[77.10379,43.39365],[77.10119,43.39298],[77.11668,43.39983],[77.12996,43.40542]]},"properties":{"src":"city","name":"Разлом (городская сеть)","note":"Оцифровано с рис. 1(b) статьи Frontiers in Built Environment 2024 (CC BY 4.0). Привязка по границе города: медианное расхождение 281 м, 90-й перцентиль 913 м."}},{"type":"Feature","geometry":{"type":"LineString","coordinates":[[76.82126,43.38276],[77.15686,43.15734],[77.1662,43.16791],[77.16482,43.16968],[77.16183,43.1719],[77.15633,43.17639],[77.1688,43.16734],[77.17134,43.16595],[77.17325,43.16418],[77.17981,43.16106],[77.18167,43.15852],[77.18904,43.15221]]},"properties":{"src":"city","name":"Разлом (городская сеть)","note":"Оцифровано с рис. 1(b) статьи Frontiers in Built Environment 2024 (CC BY 4.0). Привязка по границе города: медианное расхождение 281 м, 90-й перцентиль 913 м."}},{"type":"Feature","geometry":{"type":"LineString","coordinates":[[77.23068,43.40286],[77.23693,43.40522],[77.22383,43.39932],[77.21307,43.39373]]},"properties":{"src":"city","name":"Разлом (городская сеть)","note":"Оцифровано с рис. 1(b) статьи Frontiers in Built Environment 2024 (CC BY 4.0). Привязка по границе города: медианное расхождение 281 м, 90-й перцентиль 913 м."}},{"type":"Feature","geometry":{"type":"LineString","coordinates":[[77.02451,43.39478],[77.0309,43.38192],[77.03058,43.37912],[77.03155,43.37629]]},"properties":{"src":"city","name":"Разлом (городская сеть)","note":"Оцифровано с рис. 1(b) статьи Frontiers in Built Environment 2024 (CC BY 4.0). Привязка по границе города: медианное расхождение 281 м, 90-й перцентиль 913 м."}},{"type":"Feature","geometry":{"type":"LineString","coordinates":[[77.1799,43.37839],[77.17724,43.37865],[77.19385,43.38497],[77.18498,43.38119],[77.18227,43.38001],[77.1741,43.3775],[77.16919,43.37551],[77.16092,43.37226],[77.15842,43.37123],[77.15557,43.37064]]},"properties":{"src":"city","name":"Разлом (городская сеть)","note":"Оцифровано с рис. 1(b) статьи Frontiers in Built Environment 2024 (CC BY 4.0). Привязка по границе города: медианное расхождение 281 м, 90-й перцентиль 913 м."}},{"type":"Feature","geometry":{"type":"LineString","coordinates":[[76.86012,43.38137],[76.86656,43.3858],[76.85339,43.3774],[76.84571,43.37392],[76.84238,43.37174],[76.82935,43.36511],[76.81833,43.35878],[76.81556,43.35771]]},"properties":{"src":"city","name":"Разлом (городская сеть)","note":"Оцифровано с рис. 1(b) статьи Frontiers in Built Environment 2024 (CC BY 4.0). Привязка по границе города: медианное расхождение 281 м, 90-й перцентиль 913 м."}},{"type":"Feature","geometry":{"type":"LineString","coordinates":[[77.25628,43.37798],[77.26326,43.38058],[77.26224,43.37594],[77.22573,43.36059],[77.22413,43.36291],[77.21999,43.36067],[77.21186,43.35637],[77.20683,43.35409],[77.20172,43.35259],[77.19716,43.35704],[77.19993,43.35811],[77.20237,43.35977],[77.20504,43.36007],[77.20845,43.36233],[77.22394,43.36849],[77.23173,43.37116],[77.23441,43.37289],[77.24721,43.37609],[77.25291,43.37764],[77.24209,43.37511]]},"properties":{"src":"city","name":"Разлом (городская сеть)","note":"Оцифровано с рис. 1(b) статьи Frontiers in Built Environment 2024 (CC BY 4.0). Привязка по границе города: медианное расхождение 281 м, 90-й перцентиль 913 м."}},{"type":"Feature","geometry":{"type":"LineString","coordinates":[[76.97834,43.37817],[76.98181,43.3788],[76.97835,43.37229],[76.9471,43.37272]]},"properties":{"src":"city","name":"Разлом (городская сеть)","note":"Оцифровано с рис. 1(b) статьи Frontiers in Built Environment 2024 (CC BY 4.0). Привязка по границе города: медианное расхождение 281 м, 90-й перцентиль 913 м."}},{"type":"Feature","geometry":{"type":"LineString","coordinates":[[77.01462,43.3757],[77.01678,43.37737],[77.01154,43.37425],[77.0106,43.37227]]},"properties":{"src":"city","name":"Разлом (городская сеть)","note":"Оцифровано с рис. 1(b) статьи Frontiers in Built Environment 2024 (CC BY 4.0). Привязка по границе города: медианное расхождение 281 м, 90-й перцентиль 913 м."}},{"type":"Feature","geometry":{"type":"LineString","coordinates":[[76.87185,43.35563],[76.88511,43.36054],[76.86926,43.35496],[76.86132,43.36388],[76.85446,43.36112],[76.86538,43.36632],[76.88899,43.37528],[76.88899,43.36271],[76.90303,43.36625]]},"properties":{"src":"city","name":"Разлом (городская сеть)","note":"Оцифровано с рис. 1(b) статьи Frontiers in Built Environment 2024 (CC BY 4.0). Привязка по границе города: медианное расхождение 281 м, 90-й перцентиль 913 м."}},{"type":"Feature","geometry":{"type":"LineString","coordinates":[[76.92741,43.36224],[76.9319,43.3675],[76.92614,43.36046],[76.92383,43.35828],[76.92263,43.35642],[76.92124,43.35428],[76.91984,43.35171],[76.91857,43.34696]]},"properties":{"src":"city","name":"Разлом (городская сеть)","note":"Оцифровано с рис. 1(b) статьи Frontiers in Built Environment 2024 (CC BY 4.0). Привязка по границе города: медианное расхождение 281 м, 90-й перцентиль 913 м."}},{"type":"Feature","geometry":{"type":"LineString","coordinates":[[76.74897,43.36499],[76.75159,43.36562],[76.74395,43.36338],[76.73661,43.36073],[76.73156,43.35911],[76.72735,43.35697],[76.71363,43.35143],[76.71086,43.35036]]},"properties":{"src":"city","name":"Разлом (городская сеть)","note":"Оцифровано с рис. 1(b) статьи Frontiers in Built Environment 2024 (CC BY 4.0). Привязка по границе города: медианное расхождение 281 м, 90-й перцентиль 913 м."}},{"type":"Feature","geometry":{"type":"LineString","coordinates":[[77.08471,43.33693],[77.08303,43.34823],[77.09644,43.35403],[77.07952,43.34763],[77.06027,43.33748],[77.05796,43.33417],[77.05196,43.33142],[77.04909,43.34076],[77.05605,43.34198]]},"properties":{"src":"city","name":"Разлом (городская сеть)","note":"Оцифровано с рис. 1(b) статьи Frontiers in Built Environment 2024 (CC BY 4.0). Привязка по границе города: медианное расхождение 281 м, 90-й перцентиль 913 м."}},{"type":"Feature","geometry":{"type":"LineString","coordinates":[[77.18792,43.35205],[77.19299,43.35485],[77.19394,43.34883],[77.19153,43.3466],[77.18812,43.34529],[77.18383,43.34312],[77.1823,43.34103],[77.16889,43.33478],[77.167,43.33288],[77.17206,43.33633],[77.17897,43.33968],[77.17697,43.34608],[77.18071,43.3477],[77.18334,43.34965]]},"properties":{"src":"city","name":"Разлом (городская сеть)","note":"Оцифровано с рис. 1(b) статьи Frontiers in Built Environment 2024 (CC BY 4.0). Привязка по границе города: медианное расхождение 281 м, 90-й перцентиль 913 м."}},{"type":"Feature","geometry":{"type":"LineString","coordinates":[[77.22781,43.3516],[77.2282,43.35366],[77.22619,43.34963]]},"properties":{"src":"city","name":"Разлом (городская сеть)","note":"Оцифровано с рис. 1(b) статьи Frontiers in Built Environment 2024 (CC BY 4.0). Привязка по границе города: медианное расхождение 281 м, 90-й перцентиль 913 м."}},{"type":"Feature","geometry":{"type":"LineString","coordinates":[[76.92932,43.34456],[76.89885,43.33487],[76.94198,43.34537],[76.93326,43.34439],[76.94547,43.34593],[76.96964,43.34889]]},"properties":{"src":"city","name":"Разлом (городская сеть)","note":"Оцифровано с рис. 1(b) статьи Frontiers in Built Environment 2024 (CC BY 4.0). Привязка по границе города: медианное расхождение 281 м, 90-й перцентиль 913 м."}},{"type":"Feature","geometry":{"type":"LineString","coordinates":[[76.78355,43.34434],[76.79231,43.34751],[76.77602,43.34111],[76.76797,43.33901],[76.7533,43.3364],[76.74123,43.33604],[76.73249,43.33662],[76.71782,43.3376],[76.7083,43.3376],[76.69186,43.34128]]},"properties":{"src":"city","name":"Разлом (городская сеть)","note":"Оцифровано с рис. 1(b) статьи Frontiers in Built Environment 2024 (CC BY 4.0). Привязка по границе города: медианное расхождение 281 м, 90-й перцентиль 913 м."}},{"type":"Feature","geometry":{"type":"LineString","coordinates":[[77.04015,43.34696],[77.04011,43.3437],[77.04299,43.33603],[77.04524,43.33439],[77.0469,43.32512]]},"properties":{"src":"city","name":"Разлом (городская сеть)","note":"Оцифровано с рис. 1(b) статьи Frontiers in Built Environment 2024 (CC BY 4.0). Привязка по границе города: медианное расхождение 281 м, 90-й перцентиль 913 м."}},{"type":"Feature","geometry":{"type":"LineString","coordinates":[[77.22024,43.34215],[77.23341,43.33397],[77.23701,43.33359],[77.2396,43.33292],[77.25183,43.3278],[77.26056,43.32529]]},"properties":{"src":"city","name":"Разлом (городская сеть)","note":"Оцифровано с рис. 1(b) статьи Frontiers in Built Environment 2024 (CC BY 4.0). Привязка по границе города: медианное расхождение 281 м, 90-й перцентиль 913 м."}},{"type":"Feature","geometry":{"type":"LineString","coordinates":[[76.83627,43.34057],[76.83912,43.34116],[76.83198,43.337],[76.83458,43.33833],[76.82252,43.34027],[76.82021,43.33872],[76.8249,43.33047],[76.81956,43.32727],[76.81267,43.32179],[76.80245,43.31299],[76.79815,43.31832],[76.80138,43.32115],[76.7932,43.31482],[76.79058,43.31216],[76.7853,43.30821],[76.78104,43.30415],[76.78812,43.30069],[76.79322,43.30476]]},"properties":{"src":"city","name":"Разлом (городская сеть)","note":"Оцифровано с рис. 1(b) статьи Frontiers in Built Environment 2024 (CC BY 4.0). Привязка по границе города: медианное расхождение 281 м, 90-й перцентиль 913 м."}},{"type":"Feature","geometry":{"type":"LineString","coordinates":[[76.99415,43.33513],[77.00732,43.34018],[77.00938,43.32991],[77.01204,43.33013],[77.0069,43.32848],[77.00328,43.32813]]},"properties":{"src":"city","name":"Разлом (городская сеть)","note":"Оцифровано с рис. 1(b) статьи Frontiers in Built Environment 2024 (CC BY 4.0). Привязка по границе города: медианное расхождение 281 м, 90-й перцентиль 913 м."}},{"type":"Feature","geometry":{"type":"LineString","coordinates":[[77.16276,43.33887],[77.16415,43.34101],[77.15905,43.33896],[77.15804,43.33632],[77.1638,43.33299],[77.16322,43.33028],[77.15875,43.32966],[77.15798,43.32745],[77.14494,43.3217],[77.14355,43.31956],[77.1399,43.31894],[77.13872,43.31612],[77.12192,43.32089]]},"properties":{"src":"city","name":"Разлом (городская сеть)","note":"Оцифровано с рис. 1(b) статьи Frontiers in Built Environment 2024 (CC BY 4.0). Привязка по границе города: медианное расхождение 281 м, 90-й перцентиль 913 м."}},{"type":"Feature","geometry":{"type":"LineString","coordinates":[[76.68591,43.33885],[76.69287,43.33342],[76.69978,43.33677],[76.68488,43.32899],[76.68152,43.32752],[76.67739,43.33529],[76.66405,43.32907],[76.66129,43.32911],[76.65416,43.32274],[76.66449,43.31262],[76.65743,43.30738]]},"properties":{"src":"city","name":"Разлом (городская сеть)","note":"Оцифровано с рис. 1(b) статьи Frontiers in Built Environment 2024 (CC BY 4.0). Привязка по границе города: медианное расхождение 281 м, 90-й перцентиль 913 м."}},{"type":"Feature","geometry":{"type":"LineString","coordinates":[[76.97981,43.30131],[76.98267,43.30203],[76.97111,43.2986],[76.96262,43.29563],[76.97579,43.30076],[76.97549,43.3084],[76.98842,43.33648]]},"properties":{"src":"city","name":"Разлом (городская сеть)","note":"Оцифровано с рис. 1(b) статьи Frontiers in Built Environment 2024 (CC BY 4.0). Привязка по границе города: медианное расхождение 281 м, 90-й перцентиль 913 м."}},{"type":"Feature","geometry":{"type":"LineString","coordinates":[[77.15307,43.33493],[77.14978,43.33408],[77.14961,43.32423],[77.1376,43.32883]]},"properties":{"src":"city","name":"Разлом (городская сеть)","note":"Оцифровано с рис. 1(b) статьи Frontiers in Built Environment 2024 (CC BY 4.0). Привязка по границе города: медианное расхождение 281 м, 90-й перцентиль 913 м."}},{"type":"Feature","geometry":{"type":"LineString","coordinates":[[77.09273,43.33172],[77.09777,43.32761],[77.09915,43.32547]]},"properties":{"src":"city","name":"Разлом (городская сеть)","note":"Оцифровано с рис. 1(b) статьи Frontiers in Built Environment 2024 (CC BY 4.0). Привязка по границе города: медианное расхождение 281 м, 90-й перцентиль 913 м."}},{"type":"Feature","geometry":{"type":"LineString","coordinates":[[76.90638,43.32595],[76.92561,43.32837],[76.92982,43.32983],[76.93761,43.32983],[76.9653,43.32992]]},"properties":{"src":"city","name":"Разлом (городская сеть)","note":"Оцифровано с рис. 1(b) статьи Frontiers in Built Environment 2024 (CC BY 4.0). Привязка по границе города: медианное расхождение 281 м, 90-й перцентиль 913 м."}},{"type":"Feature","geometry":{"type":"LineString","coordinates":[[76.66325,43.32055],[76.67827,43.31912],[76.68131,43.31647],[76.68496,43.3156],[76.68061,43.30638],[76.68843,43.3056],[76.69188,43.30491],[76.69532,43.30418],[76.69878,43.30418],[76.70026,43.31043],[76.69778,43.3113],[76.70729,43.3086],[76.71084,43.30742],[76.70795,43.30493],[76.74168,43.29487],[76.74311,43.29036],[76.75009,43.28641]]},"properties":{"src":"city","name":"Разлом (городская сеть)","note":"Оцифровано с рис. 1(b) статьи Frontiers in Built Environment 2024 (CC BY 4.0). Привязка по границе города: медианное расхождение 281 м, 90-й перцентиль 913 м."}},{"type":"Feature","geometry":{"type":"LineString","coordinates":[[76.93499,43.29227],[76.93766,43.29257],[76.92715,43.28895],[76.91938,43.28624],[76.9335,43.28371],[76.90848,43.26893],[76.93935,43.28679],[76.9358,43.28562],[76.94904,43.29128],[76.9429,43.28803],[76.9492,43.30053],[76.94072,43.29377],[76.94551,43.30962],[76.96047,43.31941]]},"properties":{"src":"city","name":"Разлом (городская сеть)","note":"Оцифровано с рис. 1(b) статьи Frontiers in Built Environment 2024 (CC BY 4.0). Привязка по границе города: медианное расхождение 281 м, 90-й перцентиль 913 м."}},{"type":"Feature","geometry":{"type":"LineString","coordinates":[[77.05756,43.30688],[77.05718,43.30345],[77.06258,43.31778],[77.08048,43.31945],[77.07794,43.31806],[77.08561,43.31739],[77.10648,43.32032],[77.10918,43.31716],[77.11746,43.32043]]},"properties":{"src":"city","name":"Разлом (городская сеть)","note":"Оцифровано с рис. 1(b) статьи Frontiers in Built Environment 2024 (CC BY 4.0). Привязка по границе города: медианное расхождение 281 м, 90-й перцентиль 913 м."}},{"type":"Feature","geometry":{"type":"LineString","coordinates":[[76.86837,43.31824],[76.86657,43.31563],[76.86404,43.31423],[76.85713,43.30953],[76.85851,43.30124],[76.85219,43.29789],[76.84964,43.30074],[76.83671,43.28991],[76.83139,43.28469],[76.82958,43.28272]]},"properties":{"src":"city","name":"Разлом (городская сеть)","note":"Оцифровано с рис. 1(b) статьи Frontiers in Built Environment 2024 (CC BY 4.0). Привязка по границе города: медианное расхождение 281 м, 90-й перцентиль 913 м."}},{"type":"Feature","geometry":{"type":"LineString","coordinates":[[77.09769,43.30886],[77.0925,43.30819],[77.08474,43.30736],[77.08899,43.3078],[77.08038,43.30686],[77.0726,43.31822],[77.07,43.31755],[77.06567,43.31755],[77.05707,43.31596],[77.0544,43.31566],[77.05272,43.30427],[77.04749,43.30438],[77.0413,43.30198],[77.03253,43.30035]]},"properties":{"src":"city","name":"Разлом (городская сеть)","note":"Оцифровано с рис. 1(b) статьи Frontiers in Built Environment 2024 (CC BY 4.0). Привязка по границе города: медианное расхождение 281 м, 90-й перцентиль 913 м."}},{"type":"Feature","geometry":{"type":"LineString","coordinates":[[76.91006,43.31614],[76.91186,43.3181],[76.90236,43.30966],[76.89624,43.3028],[76.89817,43.29896],[76.89533,43.29212],[76.89171,43.28616],[76.89001,43.28414],[76.88427,43.2757],[76.89434,43.27411],[76.89876,43.27733],[76.90765,43.281],[76.91329,43.2836],[76.91606,43.28467]]},"properties":{"src":"city","name":"Разлом (городская сеть)","note":"Оцифровано с рис. 1(b) статьи Frontiers in Built Environment 2024 (CC BY 4.0). Привязка по границе города: медианное расхождение 281 м, 90-й перцентиль 913 м."}},{"type":"Feature","geometry":{"type":"LineString","coordinates":[[76.99104,43.31749],[76.99433,43.31075],[76.99509,43.30859],[76.99993,43.30333]]},"properties":{"src":"city","name":"Разлом (городская сеть)","note":"Оцифровано с рис. 1(b) статьи Frontiers in Built Environment 2024 (CC BY 4.0). Привязка по границе города: медианное расхождение 281 м, 90-й перцентиль 913 м."}},{"type":"Feature","geometry":{"type":"LineString","coordinates":[[77.08328,43.31496],[77.08423,43.31298],[77.07909,43.31354]]},"properties":{"src":"city","name":"Разлом (городская сеть)","note":"Оцифровано с рис. 1(b) статьи Frontiers in Built Environment 2024 (CC BY 4.0). Привязка по границе города: медианное расхождение 281 м, 90-й перцентиль 913 м."}},{"type":"Feature","geometry":{"type":"LineString","coordinates":[[76.8534,43.29263],[76.88529,43.30846],[76.8858,43.31212]]},"properties":{"src":"city","name":"Разлом (городская сеть)","note":"Оцифровано с рис. 1(b) статьи Frontiers in Built Environment 2024 (CC BY 4.0). Привязка по границе города: медианное расхождение 281 м, 90-й перцентиль 913 м."}},{"type":"Feature","geometry":{"type":"LineString","coordinates":[[77.11451,43.31357],[77.12973,43.30669],[77.13042,43.30303],[77.13327,43.30249],[77.14073,43.29725],[77.14726,43.29377]]},"properties":{"src":"city","name":"Разлом (городская сеть)","note":"Оцифровано с рис. 1(b) статьи Frontiers in Built Environment 2024 (CC BY 4.0). Привязка по границе города: медианное расхождение 281 м, 90-й перцентиль 913 м."}},{"type":"Feature","geometry":{"type":"LineString","coordinates":[[76.90909,43.31354],[76.90931,43.30885],[76.914,43.30953]]},"properties":{"src":"city","name":"Разлом (городская сеть)","note":"Оцифровано с рис. 1(b) статьи Frontiers in Built Environment 2024 (CC BY 4.0). Привязка по границе города: медианное расхождение 281 м, 90-й перцентиль 913 м."}},{"type":"Feature","geometry":{"type":"LineString","coordinates":[[76.93586,43.31305],[76.93937,43.31327],[76.92722,43.3122]]},"properties":{"src":"city","name":"Разлом (городская сеть)","note":"Оцифровано с рис. 1(b) статьи Frontiers in Built Environment 2024 (CC BY 4.0). Привязка по границе города: медианное расхождение 281 м, 90-й перцентиль 913 м."}},{"type":"Feature","geometry":{"type":"LineString","coordinates":[[77.17307,43.29071],[77.17053,43.28932],[77.18346,43.29541],[77.19385,43.29942],[77.19911,43.2976],[77.21478,43.30767]]},"properties":{"src":"city","name":"Разлом (городская сеть)","note":"Оцифровано с рис. 1(b) статьи Frontiers in Built Environment 2024 (CC BY 4.0). Привязка по границе города: медианное расхождение 281 м, 90-й перцентиль 913 м."}},{"type":"Feature","geometry":{"type":"LineString","coordinates":[[77.03405,43.3077],[77.03558,43.30561],[77.02749,43.29942]]},"properties":{"src":"city","name":"Разлом (городская сеть)","note":"Оцифровано с рис. 1(b) статьи Frontiers in Built Environment 2024 (CC BY 4.0). Привязка по границе города: медианное расхождение 281 м, 90-й перцентиль 913 м."}},{"type":"Feature","geometry":{"type":"LineString","coordinates":[[76.98609,43.30217],[76.98903,43.29101],[76.96404,43.25158],[76.96757,43.25142],[76.96718,43.24936],[76.96543,43.24536],[76.96461,43.24134],[76.96289,43.23867],[76.96244,43.2353],[76.97594,43.22992],[76.97803,43.23409],[76.97914,43.23602],[76.98001,43.23802]]},"properties":{"src":"city","name":"Разлом (городская сеть)","note":"Оцифровано с рис. 1(b) статьи Frontiers in Built Environment 2024 (CC BY 4.0). Привязка по границе города: медианное расхождение 281 м, 90-й перцентиль 913 м."}},{"type":"Feature","geometry":{"type":"LineString","coordinates":[[77.18682,43.29636],[77.17816,43.29249],[77.16692,43.28781]]},"properties":{"src":"city","name":"Разлом (городская сеть)","note":"Оцифровано с рис. 1(b) статьи Frontiers in Built Environment 2024 (CC BY 4.0). Привязка по границе города: медианное расхождение 281 м, 90-й перцентиль 913 м."}},{"type":"Feature","geometry":{"type":"LineString","coordinates":[[76.87461,43.28941],[76.876,43.29155],[76.87002,43.2788],[76.86934,43.2761],[76.86648,43.2695],[76.8651,43.26736],[76.86832,43.2634],[76.85492,43.24997],[76.85129,43.24793],[76.83842,43.24226],[76.8408,43.2479],[76.80837,43.22812]]},"properties":{"src":"city","name":"Разлом (городская сеть)","note":"Оцифровано с рис. 1(b) статьи Frontiers in Built Environment 2024 (CC BY 4.0). Привязка по границе города: медианное расхождение 281 м, 90-й перцентиль 913 м."}},{"type":"Feature","geometry":{"type":"LineString","coordinates":[[77.20412,43.26559],[77.18941,43.26558],[77.20582,43.27465],[77.20932,43.27411],[77.19702,43.2755],[77.17935,43.27284],[77.20337,43.27455],[77.20081,43.27381],[77.20753,43.28296],[77.20375,43.28046],[77.20715,43.29149],[77.20018,43.28068],[77.19923,43.2787],[77.21548,43.28338],[77.22134,43.28494],[77.22411,43.28601],[77.22925,43.28744]]},"properties":{"src":"city","name":"Разлом (городская сеть)","note":"Оцифровано с рис. 1(b) статьи Frontiers in Built Environment 2024 (CC BY 4.0). Привязка по границе города: медианное расхождение 281 м, 90-й перцентиль 913 м."}},{"type":"Feature","geometry":{"type":"LineString","coordinates":[[77.23874,43.28982],[77.24215,43.27593],[77.25088,43.27644],[77.26297,43.27616],[77.26641,43.27606],[77.26992,43.27556]]},"properties":{"src":"city","name":"Разлом (городская сеть)","note":"Оцифровано с рис. 1(b) статьи Frontiers in Built Environment 2024 (CC BY 4.0). Привязка по границе города: медианное расхождение 281 м, 90-й перцентиль 913 м."}},{"type":"Feature","geometry":{"type":"LineString","coordinates":[[76.85584,43.28547],[76.851,43.27748],[76.84288,43.26221],[76.83974,43.25745],[76.83764,43.25517],[76.82962,43.26324],[76.81425,43.26454],[76.80984,43.25991]]},"properties":{"src":"city","name":"Разлом (городская сеть)","note":"Оцифровано с рис. 1(b) статьи Frontiers in Built Environment 2024 (CC BY 4.0). Привязка по границе города: медианное расхождение 281 м, 90-й перцентиль 913 м."}},{"type":"Feature","geometry":{"type":"LineString","coordinates":[[76.96433,43.28355],[76.9609,43.28293],[76.95411,43.28068],[76.94371,43.27854],[76.94105,43.27824]]},"properties":{"src":"city","name":"Разлом (городская сеть)","note":"Оцифровано с рис. 1(b) статьи Frontiers in Built Environment 2024 (CC BY 4.0). Привязка по границе города: медианное расхождение 281 м, 90-й перцентиль 913 м."}},{"type":"Feature","geometry":{"type":"LineString","coordinates":[[77.1698,43.27968],[77.17419,43.27761],[77.17574,43.27552],[77.16893,43.26631],[77.17438,43.264],[77.18196,43.25977],[77.18251,43.25575],[77.19535,43.25182],[77.19826,43.25152],[77.20075,43.24945],[77.20412,43.24871],[77.22049,43.24259],[77.22766,43.2396],[77.24211,43.2351],[77.24659,43.23419],[77.23885,43.22226],[77.23521,43.22317],[77.24656,43.21936],[77.25374,43.21639],[77.24393,43.21998]]},"properties":{"src":"city","name":"Разлом (городская сеть)","note":"Оцифровано с рис. 1(b) статьи Frontiers in Built Environment 2024 (CC BY 4.0). Привязка по границе города: медианное расхождение 281 м, 90-й перцентиль 913 м."}},{"type":"Feature","geometry":{"type":"LineString","coordinates":[[76.93341,43.27752],[76.93434,43.26336],[76.93622,43.26141],[76.93622,43.25807]]},"properties":{"src":"city","name":"Разлом (городская сеть)","note":"Оцифровано с рис. 1(b) статьи Frontiers in Built Environment 2024 (CC BY 4.0). Привязка по границе города: медианное расхождение 281 м, 90-й перцентиль 913 м."}},{"type":"Feature","geometry":{"type":"LineString","coordinates":[[76.7243,43.26252],[76.7183,43.25581],[76.7263,43.26947],[76.73961,43.27687]]},"properties":{"src":"city","name":"Разлом (городская сеть)","note":"Оцифровано с рис. 1(b) статьи Frontiers in Built Environment 2024 (CC BY 4.0). Привязка по границе города: медианное расхождение 281 м, 90-й перцентиль 913 м."}},{"type":"Feature","geometry":{"type":"LineString","coordinates":[[76.7652,43.27466],[76.76701,43.2727],[76.76977,43.27079],[76.77304,43.26798]]},"properties":{"src":"city","name":"Разлом (городская сеть)","note":"Оцифровано с рис. 1(b) статьи Frontiers in Built Environment 2024 (CC BY 4.0). Привязка по границе города: медианное расхождение 281 м, 90-й перцентиль 913 м."}},{"type":"Feature","geometry":{"type":"LineString","coordinates":[[76.72042,43.27166],[76.71268,43.26851],[76.71001,43.26821]]},"properties":{"src":"city","name":"Разлом (городская сеть)","note":"Оцифровано с рис. 1(b) статьи Frontiers in Built Environment 2024 (CC BY 4.0). Привязка по границе города: медианное расхождение 281 м, 90-й перцентиль 913 м."}},{"type":"Feature","geometry":{"type":"LineString","coordinates":[[76.87297,43.26091],[76.90445,43.26842]]},"properties":{"src":"city","name":"Разлом (городская сеть)","note":"Оцифровано с рис. 1(b) статьи Frontiers in Built Environment 2024 (CC BY 4.0). Привязка по границе города: медианное расхождение 281 м, 90-й перцентиль 913 м."}},{"type":"Feature","geometry":{"type":"LineString","coordinates":[[77.14023,43.26131],[77.14592,43.2656],[77.13223,43.25676],[77.13084,43.25462],[77.1278,43.25346],[77.12642,43.25132],[77.12334,43.25087],[77.12106,43.24804],[77.11819,43.24815],[77.1168,43.24601],[77.11351,43.24531],[77.11261,43.24331],[77.10764,43.2427]]},"properties":{"src":"city","name":"Разлом (городская сеть)","note":"Оцифровано с рис. 1(b) статьи Frontiers in Built Environment 2024 (CC BY 4.0). Привязка по границе города: медианное расхождение 281 м, 90-й перцентиль 913 м."}},{"type":"Feature","geometry":{"type":"LineString","coordinates":[[76.67811,43.25535],[76.68021,43.25762],[76.67397,43.2551],[76.66441,43.24613]]},"properties":{"src":"city","name":"Разлом (городская сеть)","note":"Оцифровано с рис. 1(b) статьи Frontiers in Built Environment 2024 (CC BY 4.0). Привязка по границе города: медианное расхождение 281 м, 90-й перцентиль 913 м."}},{"type":"Feature","geometry":{"type":"LineString","coordinates":[[76.93453,43.24326],[76.93358,43.24128],[76.93237,43.24882],[76.93881,43.25436],[76.94535,43.25413],[76.94884,43.25543],[76.95463,43.25027],[76.9417,43.24294],[76.92228,43.22214],[76.92203,43.21931],[76.92117,43.2173],[76.91508,43.21619],[76.90424,43.18461],[76.90559,43.18121],[76.90473,43.17921],[76.9022,43.17051],[76.90159,43.16846]]},"properties":{"src":"city","name":"Разлом (городская сеть)","note":"Оцифровано с рис. 1(b) статьи Frontiers in Built Environment 2024 (CC BY 4.0). Привязка по границе города: медианное расхождение 281 м, 90-й перцентиль 913 м."}},{"type":"Feature","geometry":{"type":"LineString","coordinates":[[76.87563,43.25142],[76.87602,43.24936],[76.87319,43.23724],[76.87414,43.23526],[76.87314,43.23334]]},"properties":{"src":"city","name":"Разлом (городская сеть)","note":"Оцифровано с рис. 1(b) статьи Frontiers in Built Environment 2024 (CC BY 4.0). Привязка по границе города: медианное расхождение 281 м, 90-й перцентиль 913 м."}},{"type":"Feature","geometry":{"type":"LineString","coordinates":[[76.91593,43.24763],[76.91859,43.24793],[76.9004,43.24448]]},"properties":{"src":"city","name":"Разлом (городская сеть)","note":"Оцифровано с рис. 1(b) статьи Frontiers in Built Environment 2024 (CC BY 4.0). Привязка по границе города: медианное расхождение 281 м, 90-й перцентиль 913 м."}},{"type":"Feature","geometry":{"type":"LineString","coordinates":[[76.87032,43.24231],[76.87874,43.24502],[76.86062,43.24298],[76.8519,43.24266]]},"properties":{"src":"city","name":"Разлом (городская сеть)","note":"Оцифровано с рис. 1(b) статьи Frontiers in Built Environment 2024 (CC BY 4.0). Привязка по границе города: медианное расхождение 281 м, 90-й перцентиль 913 м."}},{"type":"Feature","geometry":{"type":"LineString","coordinates":[[77.15999,43.24684],[77.15122,43.24494],[77.14253,43.24235],[77.13508,43.24055],[77.13282,43.23893],[77.12289,43.23727],[77.11059,43.23723],[77.08434,43.21999],[77.07337,43.21609],[77.07747,43.21248],[77.08761,43.21408],[77.08549,43.22773],[77.089,43.22818],[77.07775,43.22684],[77.07424,43.22639],[77.06831,43.22581],[77.06741,43.23434],[77.06394,43.23434],[77.06048,43.2342],[77.05447,43.23435],[77.05181,43.23413]]},"properties":{"src":"city","name":"Разлом (городская сеть)","note":"Оцифровано с рис. 1(b) статьи Frontiers in Built Environment 2024 (CC BY 4.0). Привязка по границе города: медианное расхождение 281 м, 90-й перцентиль 913 м."}},{"type":"Feature","geometry":{"type":"LineString","coordinates":[[77.19028,43.21396],[77.18941,43.21196],[77.19995,43.22121],[77.19382,43.21591],[77.20321,43.22468],[77.20565,43.22872],[77.20474,43.22673],[77.20865,43.23097],[77.21654,43.2446]]},"properties":{"src":"city","name":"Разлом (городская сеть)","note":"Оцифровано с рис. 1(b) статьи Frontiers in Built Environment 2024 (CC BY 4.0). Привязка по границе города: медианное расхождение 281 м, 90-й перцентиль 913 м."}},{"type":"Feature","geometry":{"type":"LineString","coordinates":[[76.70125,43.23674],[76.70586,43.24262],[76.69702,43.23568],[76.69068,43.22577],[76.68966,43.22383],[76.68705,43.21983]]},"properties":{"src":"city","name":"Разлом (городская сеть)","note":"Оцифровано с рис. 1(b) статьи Frontiers in Built Environment 2024 (CC BY 4.0). Привязка по границе города: медианное расхождение 281 м, 90-й перцентиль 913 м."}},{"type":"Feature","geometry":{"type":"LineString","coordinates":[[77.08341,43.23267],[77.07076,43.23343],[77.06451,43.22608],[77.06356,43.2241]]},"properties":{"src":"city","name":"Разлом (городская сеть)","note":"Оцифровано с рис. 1(b) статьи Frontiers in Built Environment 2024 (CC BY 4.0). Привязка по границе города: медианное расхождение 281 м, 90-й перцентиль 913 м."}},{"type":"Feature","geometry":{"type":"LineString","coordinates":[[76.91855,43.23218],[76.92206,43.2324],[76.90731,43.22935],[76.90108,43.22776],[76.89883,43.22626],[76.89085,43.22553],[76.87391,43.22574],[76.84046,43.21064],[76.84734,43.20685],[76.84226,43.20341],[76.83879,43.20133],[76.83741,43.19919],[76.83298,43.19886],[76.82318,43.1885],[76.81203,43.18263]]},"properties":{"src":"city","name":"Разлом (городская сеть)","note":"Оцифровано с рис. 1(b) статьи Frontiers in Built Environment 2024 (CC BY 4.0). Привязка по границе города: медианное расхождение 281 м, 90-й перцентиль 913 м."}},{"type":"Feature","geometry":{"type":"LineString","coordinates":[[76.82771,43.231],[76.84327,43.22854],[76.84764,43.22812]]},"properties":{"src":"city","name":"Разлом (городская сеть)","note":"Оцифровано с рис. 1(b) статьи Frontiers in Built Environment 2024 (CC BY 4.0). Привязка по границе города: медианное расхождение 281 м, 90-й перцентиль 913 м."}},{"type":"Feature","geometry":{"type":"LineString","coordinates":[[77.01639,43.22991],[77.01899,43.23058],[77.02241,43.23086]]},"properties":{"src":"city","name":"Разлом (городская сеть)","note":"Оцифровано с рис. 1(b) статьи Frontiers in Built Environment 2024 (CC BY 4.0). Привязка по границе города: медианное расхождение 281 м, 90-й перцентиль 913 м."}},{"type":"Feature","geometry":{"type":"LineString","coordinates":[[77.16678,43.17928],[77.16497,43.17732],[77.17941,43.18762],[77.16959,43.18048],[77.18408,43.19131],[77.18228,43.18935],[77.18952,43.19383],[77.18693,43.19182],[77.19902,43.19846],[77.19625,43.19739],[77.20348,43.20178],[77.20145,43.19998],[77.21324,43.21085],[77.21836,43.21623],[77.21002,43.20868],[77.20672,43.20394],[77.2228,43.21847],[77.22413,43.22913]]},"properties":{"src":"city","name":"Разлом (городская сеть)","note":"Оцифровано с рис. 1(b) статьи Frontiers in Built Environment 2024 (CC BY 4.0). Привязка по границе города: медианное расхождение 281 м, 90-й перцентиль 913 м."}},{"type":"Feature","geometry":{"type":"LineString","coordinates":[[76.95879,43.22436],[76.96418,43.22825],[76.957,43.22058],[76.94026,43.21189],[76.93732,43.21084],[76.93242,43.20728],[76.93601,43.19905],[76.92809,43.19592],[76.92376,43.19391],[76.92117,43.19324]]},"properties":{"src":"city","name":"Разлом (городская сеть)","note":"Оцифровано с рис. 1(b) статьи Frontiers in Built Environment 2024 (CC BY 4.0). Привязка по границе города: медианное расхождение 281 м, 90-й перцентиль 913 м."}},{"type":"Feature","geometry":{"type":"LineString","coordinates":[[77.26894,43.22653],[77.2717,43.22546],[77.26729,43.21129]]},"properties":{"src":"city","name":"Разлом (городская сеть)","note":"Оцифровано с рис. 1(b) статьи Frontiers in Built Environment 2024 (CC BY 4.0). Привязка по границе города: медианное расхождение 281 м, 90-й перцентиль 913 м."}},{"type":"Feature","geometry":{"type":"LineString","coordinates":[[76.7003,43.22253],[76.70211,43.22057],[76.70473,43.21857],[76.70956,43.21422]]},"properties":{"src":"city","name":"Разлом (городская сеть)","note":"Оцифровано с рис. 1(b) статьи Frontiers in Built Environment 2024 (CC BY 4.0). Привязка по границе города: медианное расхождение 281 м, 90-й перцентиль 913 м."}},{"type":"Feature","geometry":{"type":"LineString","coordinates":[[76.74767,43.21393],[76.90838,43.09679],[76.91231,43.09546],[76.96147,43.05218]]},"properties":{"src":"city","name":"Разлом (городская сеть)","note":"Оцифровано с рис. 1(b) статьи Frontiers in Built Environment 2024 (CC BY 4.0). Привязка по границе города: медианное расхождение 281 м, 90-й перцентиль 913 м."}},{"type":"Feature","geometry":{"type":"LineString","coordinates":[[76.96954,43.21803],[76.9724,43.22052],[76.96822,43.21278],[76.96645,43.2092],[76.96831,43.2066],[76.94819,43.16855],[76.95595,43.16711],[76.95734,43.16925],[76.96286,43.17578],[76.96786,43.18123],[76.96941,43.183],[76.97062,43.18518]]},"properties":{"src":"city","name":"Разлом (городская сеть)","note":"Оцифровано с рис. 1(b) статьи Frontiers in Built Environment 2024 (CC BY 4.0). Привязка по границе города: медианное расхождение 281 м, 90-й перцентиль 913 м."}},{"type":"Feature","geometry":{"type":"LineString","coordinates":[[77.00954,43.20719],[77.02176,43.21099],[77.01906,43.2098],[77.02608,43.21384],[77.02428,43.21188],[77.02973,43.21604],[77.03043,43.21384],[77.0329,43.19991]]},"properties":{"src":"city","name":"Разлом (городская сеть)","note":"Оцифровано с рис. 1(b) статьи Frontiers in Built Environment 2024 (CC BY 4.0). Привязка по границе города: медианное расхождение 281 м, 90-й перцентиль 913 м."}},{"type":"Feature","geometry":{"type":"LineString","coordinates":[[77.06222,43.21556],[77.07017,43.19983],[77.0745,43.19926],[77.07321,43.20799],[77.07403,43.21067],[77.09109,43.20865],[77.09148,43.20659]]},"properties":{"src":"city","name":"Разлом (городская сеть)","note":"Оцифровано с рис. 1(b) статьи Frontiers in Built Environment 2024 (CC BY 4.0). Привязка по границе города: медианное расхождение 281 м, 90-й перцентиль 913 м."}},{"type":"Feature","geometry":{"type":"LineString","coordinates":[[76.7143,43.20645],[76.73692,43.20812],[76.74107,43.20141],[76.73837,43.20023],[76.73098,43.19711],[76.72839,43.1951],[76.72366,43.19347],[76.72018,43.19149],[76.71719,43.18945],[76.70375,43.18532],[76.70239,43.18244],[76.69979,43.18043],[76.6963,43.17841],[76.69022,43.1751],[76.69349,43.16408],[76.6807,43.16095],[76.67014,43.16111],[76.6622,43.15604],[76.67633,43.16581]]},"properties":{"src":"city","name":"Разлом (городская сеть)","note":"Оцифровано с рис. 1(b) статьи Frontiers in Built Environment 2024 (CC BY 4.0). Привязка по границе города: медианное расхождение 281 м, 90-й перцентиль 913 м."}},{"type":"Feature","geometry":{"type":"LineString","coordinates":[[77.01376,43.20828],[77.0179,43.19367],[77.0153,43.193],[77.01296,43.19175],[77.01038,43.19105],[77.00184,43.1882],[76.99367,43.18557],[76.98259,43.19527],[76.9899,43.1988],[76.99208,43.20018],[76.99474,43.20048]]},"properties":{"src":"city","name":"Разлом (городская сеть)","note":"Оцифровано с рис. 1(b) статьи Frontiers in Built Environment 2024 (CC BY 4.0). Привязка по границе города: медианное расхождение 281 м, 90-й перцентиль 913 м."}},{"type":"Feature","geometry":{"type":"LineString","coordinates":[[76.66863,43.18974],[76.66204,43.18635],[76.66728,43.1941],[76.67842,43.2066]]},"properties":{"src":"city","name":"Разлом (городская сеть)","note":"Оцифровано с рис. 1(b) статьи Frontiers in Built Environment 2024 (CC BY 4.0). Привязка по границе города: медианное расхождение 281 м, 90-й перцентиль 913 м."}},{"type":"Feature","geometry":{"type":"LineString","coordinates":[[76.81601,43.20613],[76.81822,43.20725],[76.80695,43.20394],[76.80435,43.20327],[76.80175,43.20261],[76.79913,43.20129],[76.79411,43.1997]]},"properties":{"src":"city","name":"Разлом (городская сеть)","note":"Оцифровано с рис. 1(b) статьи Frontiers in Built Environment 2024 (CC BY 4.0). Привязка по границе города: медианное расхождение 281 м, 90-й перцентиль 913 м."}},{"type":"Feature","geometry":{"type":"LineString","coordinates":[[76.8769,43.20065],[76.88143,43.20725],[76.87551,43.19614],[76.86107,43.17527],[76.85311,43.17877],[76.84732,43.17241],[76.84964,43.16629],[76.85787,43.16871],[76.86478,43.17141],[76.87097,43.17388],[76.88132,43.17794],[76.87637,43.18275],[76.87351,43.18203],[76.87873,43.18395],[76.8815,43.18501],[76.88482,43.18589],[76.8891,43.18797],[76.89557,43.19073],[76.898,43.18426],[76.8891,43.18061],[76.879,43.1917],[76.88131,43.19329]]},"properties":{"src":"city","name":"Разлом (городская сеть)","note":"Оцифровано с рис. 1(b) статьи Frontiers in Built Environment 2024 (CC BY 4.0). Привязка по границе города: медианное расхождение 281 м, 90-й перцентиль 913 м."}},{"type":"Feature","geometry":{"type":"LineString","coordinates":[[76.70657,43.20419],[76.71003,43.20419],[76.70311,43.20327],[76.70051,43.2026],[76.69188,43.20115],[76.68922,43.20084],[76.67975,43.19859]]},"properties":{"src":"city","name":"Разлом (городская сеть)","note":"Оцифровано с рис. 1(b) статьи Frontiers in Built Environment 2024 (CC BY 4.0). Привязка по границе города: медианное расхождение 281 м, 90-й перцентиль 913 м."}},{"type":"Feature","geometry":{"type":"LineString","coordinates":[[77.17121,43.20199],[77.17834,43.20429],[77.16766,43.20069],[77.15033,43.19688],[77.14777,43.19615],[77.15391,43.19616],[77.15836,43.19648]]},"properties":{"src":"city","name":"Разлом (городская сеть)","note":"Оцифровано с рис. 1(b) статьи Frontiers in Built Environment 2024 (CC BY 4.0). Привязка по границе города: медианное расхождение 281 м, 90-й перцентиль 913 м."}},{"type":"Feature","geometry":{"type":"LineString","coordinates":[[76.8592,43.20273],[76.85972,43.19992],[76.85515,43.18928],[76.85362,43.18457]]},"properties":{"src":"city","name":"Разлом (городская сеть)","note":"Оцифровано с рис. 1(b) статьи Frontiers in Built Environment 2024 (CC BY 4.0). Привязка по границе города: медианное расхождение 281 м, 90-й перцентиль 913 м."}},{"type":"Feature","geometry":{"type":"LineString","coordinates":[[77.11224,43.19169],[77.1151,43.19228],[77.10894,43.19157]]},"properties":{"src":"city","name":"Разлом (городская сеть)","note":"Оцифровано с рис. 1(b) статьи Frontiers in Built Environment 2024 (CC BY 4.0). Привязка по границе города: медианное расхождение 281 м, 90-й перцентиль 913 м."}},{"type":"Feature","geometry":{"type":"LineString","coordinates":[[76.71822,43.16881],[76.70218,43.16606],[76.72921,43.16785],[76.72219,43.16698],[76.73152,43.17683],[76.72896,43.1761],[76.73776,43.17848],[76.73422,43.17728],[76.74905,43.18242],[76.74557,43.18111],[76.75163,43.18311],[76.76994,43.19026]]},"properties":{"src":"city","name":"Разлом (городская сеть)","note":"Оцифровано с рис. 1(b) статьи Frontiers in Built Environment 2024 (CC BY 4.0). Привязка по границе города: медианное расхождение 281 м, 90-й перцентиль 913 м."}},{"type":"Feature","geometry":{"type":"LineString","coordinates":[[77.07517,43.14915],[77.07335,43.14719],[77.08295,43.1565],[77.07687,43.15117],[77.08395,43.1691],[77.07556,43.17612],[77.07772,43.17728],[77.05846,43.1816],[77.04326,43.17902],[77.0292,43.17551],[77.04837,43.18007],[77.06397,43.18452],[77.07261,43.18445]]},"properties":{"src":"city","name":"Разлом (городская сеть)","note":"Оцифровано с рис. 1(b) статьи Frontiers in Built Environment 2024 (CC BY 4.0). Привязка по границе города: медианное расхождение 281 м, 90-й перцентиль 913 м."}},{"type":"Feature","geometry":{"type":"LineString","coordinates":[[76.82531,43.18119],[76.82619,43.18596],[76.82407,43.17453],[76.82399,43.16784]]},"properties":{"src":"city","name":"Разлом (городская сеть)","note":"Оцифровано с рис. 1(b) статьи Frontiers in Built Environment 2024 (CC BY 4.0). Привязка по границе города: медианное расхождение 281 м, 90-й перцентиль 913 м."}},{"type":"Feature","geometry":{"type":"LineString","coordinates":[[76.98211,43.18473],[76.98888,43.17597],[76.99111,43.17314],[76.99265,43.17041],[76.9985,43.16532],[76.99923,43.16175]]},"properties":{"src":"city","name":"Разлом (городская сеть)","note":"Оцифровано с рис. 1(b) статьи Frontiers in Built Environment 2024 (CC BY 4.0). Привязка по границе города: медианное расхождение 281 м, 90-й перцентиль 913 м."}},{"type":"Feature","geometry":{"type":"LineString","coordinates":[[77.13533,43.18322],[77.14733,43.17396],[77.14669,43.17192],[77.14255,43.16061],[77.14026,43.14911]]},"properties":{"src":"city","name":"Разлом (городская сеть)","note":"Оцифровано с рис. 1(b) статьи Frontiers in Built Environment 2024 (CC BY 4.0). Привязка по границе города: медианное расхождение 281 м, 90-й перцентиль 913 м."}},{"type":"Feature","geometry":{"type":"LineString","coordinates":[[77.01959,43.17152],[77.02647,43.17426],[77.01635,43.17052],[77.0112,43.16843],[77.00835,43.16763],[77.00467,43.16618],[76.98965,43.15707],[76.984,43.15203],[76.97363,43.14266],[76.94707,43.12392],[76.94646,43.12127],[76.9436,43.12054],[76.94089,43.11936],[76.93417,43.11701],[76.93069,43.12073],[76.91687,43.12391],[76.90674,43.12593]]},"properties":{"src":"city","name":"Разлом (городская сеть)","note":"Оцифровано с рис. 1(b) статьи Frontiers in Built Environment 2024 (CC BY 4.0). Привязка по границе города: медианное расхождение 281 м, 90-й перцентиль 913 м."}},{"type":"Feature","geometry":{"type":"LineString","coordinates":[[76.76328,43.16647],[76.77399,43.17066],[76.76022,43.16782],[76.75155,43.16747]]},"properties":{"src":"city","name":"Разлом (городская сеть)","note":"Оцифровано с рис. 1(b) статьи Frontiers in Built Environment 2024 (CC BY 4.0). Привязка по границе города: медианное расхождение 281 м, 90-й перцентиль 913 м."}},{"type":"Feature","geometry":{"type":"LineString","coordinates":[[77.24054,43.17104],[77.24565,43.17254],[77.23026,43.16691],[77.22749,43.16584]]},"properties":{"src":"city","name":"Разлом (городская сеть)","note":"Оцифровано с рис. 1(b) статьи Frontiers in Built Environment 2024 (CC BY 4.0). Привязка по границе города: медианное расхождение 281 м, 90-й перцентиль 913 м."}},{"type":"Feature","geometry":{"type":"LineString","coordinates":[[76.52993,43.16592],[76.53486,43.17018],[76.52655,43.1632],[76.52313,43.16116]]},"properties":{"src":"city","name":"Разлом (городская сеть)","note":"Оцифровано с рис. 1(b) статьи Frontiers in Built Environment 2024 (CC BY 4.0). Привязка по границе города: медианное расхождение 281 м, 90-й перцентиль 913 м."}},{"type":"Feature","geometry":{"type":"LineString","coordinates":[[76.81207,43.16812],[76.80612,43.16872],[76.82943,43.16926],[76.83292,43.16978]]},"properties":{"src":"city","name":"Разлом (городская сеть)","note":"Оцифровано с рис. 1(b) статьи Frontiers in Built Environment 2024 (CC BY 4.0). Привязка по границе города: медианное расхождение 281 м, 90-й перцентиль 913 м."}},{"type":"Feature","geometry":{"type":"LineString","coordinates":[[76.7755,43.16813],[76.78715,43.1686]]},"properties":{"src":"city","name":"Разлом (городская сеть)","note":"Оцифровано с рис. 1(b) статьи Frontiers in Built Environment 2024 (CC BY 4.0). Привязка по границе города: медианное расхождение 281 м, 90-й перцентиль 913 м."}},{"type":"Feature","geometry":{"type":"LineString","coordinates":[[76.91627,43.14131],[76.91035,43.13257],[76.92118,43.13977],[76.91842,43.1379],[76.92795,43.14457],[76.92354,43.14129],[76.94117,43.15375],[76.94939,43.16138],[76.93769,43.15175],[76.93268,43.14761],[76.92885,43.16058],[76.92191,43.15663],[76.91224,43.15178],[76.9049,43.14894],[76.89933,43.14602],[76.89608,43.14651],[76.88903,43.14059],[76.88474,43.13921],[76.8783,43.13597]]},"properties":{"src":"city","name":"Разлом (городская сеть)","note":"Оцифровано с рис. 1(b) статьи Frontiers in Built Environment 2024 (CC BY 4.0). Привязка по границе города: медианное расхождение 281 м, 90-й перцентиль 913 м."}},{"type":"Feature","geometry":{"type":"LineString","coordinates":[[77.20575,43.15799],[77.20928,43.15922],[77.19822,43.15576],[77.19457,43.15531]]},"properties":{"src":"city","name":"Разлом (городская сеть)","note":"Оцифровано с рис. 1(b) статьи Frontiers in Built Environment 2024 (CC BY 4.0). Привязка по границе города: медианное расхождение 281 м, 90-й перцентиль 913 м."}},{"type":"Feature","geometry":{"type":"LineString","coordinates":[[77.14788,43.15381],[77.15385,43.1534],[77.15736,43.15295],[77.16514,43.15206],[77.1678,43.15236]]},"properties":{"src":"city","name":"Разлом (городская сеть)","note":"Оцифровано с рис. 1(b) статьи Frontiers in Built Environment 2024 (CC BY 4.0). Привязка по границе города: медианное расхождение 281 м, 90-й перцентиль 913 м."}},{"type":"Feature","geometry":{"type":"LineString","coordinates":[[76.99479,43.14172],[77.00265,43.147],[76.99124,43.14046],[76.96942,43.12603],[76.96627,43.12833],[76.96192,43.12628],[76.95915,43.12521],[76.96305,43.11125],[76.95046,43.10874],[76.96668,43.11053],[76.97317,43.11217],[76.98174,43.1153],[76.9852,43.1153]]},"properties":{"src":"city","name":"Разлом (городская сеть)","note":"Оцифровано с рис. 1(b) статьи Frontiers in Built Environment 2024 (CC BY 4.0). Привязка по границе города: медианное расхождение 281 м, 90-й перцентиль 913 м."}},{"type":"Feature","geometry":{"type":"LineString","coordinates":[[77.01676,43.11586],[77.03271,43.12317],[77.01213,43.1143],[77.00018,43.12269],[76.99371,43.11992],[77.00943,43.12841],[77.02089,43.13628],[77.02591,43.14041]]},"properties":{"src":"city","name":"Разлом (городская сеть)","note":"Оцифровано с рис. 1(b) статьи Frontiers in Built Environment 2024 (CC BY 4.0). Привязка по границе города: медианное расхождение 281 м, 90-й перцентиль 913 м."}},{"type":"Feature","geometry":{"type":"LineString","coordinates":[[77.05096,43.1341],[77.04318,43.12808],[77.0382,43.12602],[77.03464,43.12486]]},"properties":{"src":"city","name":"Разлом (городская сеть)","note":"Оцифровано с рис. 1(b) статьи Frontiers in Built Environment 2024 (CC BY 4.0). Привязка по границе города: медианное расхождение 281 м, 90-й перцентиль 913 м."}},{"type":"Feature","geometry":{"type":"LineString","coordinates":[[77.00356,43.12436],[77.00442,43.12636],[77.00666,43.11244],[77.00528,43.1103],[76.99721,43.10845]]},"properties":{"src":"city","name":"Разлом (городская сеть)","note":"Оцифровано с рис. 1(b) статьи Frontiers in Built Environment 2024 (CC BY 4.0). Привязка по границе города: медианное расхождение 281 м, 90-й перцентиль 913 м."}},{"type":"Feature","geometry":{"type":"LineString","coordinates":[[76.96639,43.12093],[76.96307,43.11929]]},"properties":{"src":"city","name":"Разлом (городская сеть)","note":"Оцифровано с рис. 1(b) статьи Frontiers in Built Environment 2024 (CC BY 4.0). Привязка по границе города: медианное расхождение 281 м, 90-й перцентиль 913 м."}},{"type":"Feature","geometry":{"type":"LineString","coordinates":[[76.88482,43.11237],[76.88517,43.10876],[76.86785,43.09542]]},"properties":{"src":"city","name":"Разлом (городская сеть)","note":"Оцифровано с рис. 1(b) статьи Frontiers in Built Environment 2024 (CC BY 4.0). Привязка по границе города: медианное расхождение 281 м, 90-й перцентиль 913 м."}},{"type":"Feature","geometry":{"type":"LineString","coordinates":[[77.04903,43.10526],[77.05558,43.10871],[77.04145,43.10235],[77.03095,43.09709],[77.02626,43.0945],[77.01893,43.09101],[77.01088,43.08737],[77.00785,43.0861],[77.00521,43.08489]]},"properties":{"src":"city","name":"Разлом (городская сеть)","note":"Оцифровано с рис. 1(b) статьи Frontiers in Built Environment 2024 (CC BY 4.0). Привязка по границе города: медианное расхождение 281 м, 90-й перцентиль 913 м."}},{"type":"Feature","geometry":{"type":"LineString","coordinates":[[76.9001,43.09092],[76.90133,43.10573],[76.91256,43.09968],[76.91315,43.09697],[76.91485,43.09469],[76.91089,43.08361],[76.90058,43.08165],[76.8995,43.08839]]},"properties":{"src":"city","name":"Разлом (городская сеть)","note":"Оцифровано с рис. 1(b) статьи Frontiers in Built Environment 2024 (CC BY 4.0). Привязка по границе города: медианное расхождение 281 м, 90-й перцентиль 913 м."}},{"type":"Feature","geometry":{"type":"LineString","coordinates":[[76.93772,43.10466],[76.95027,43.09228],[76.95481,43.09157],[76.95878,43.08843],[76.98006,43.07797],[76.9843,43.07681],[76.99015,43.07583],[76.99732,43.06693],[76.99991,43.06626]]},"properties":{"src":"city","name":"Разлом (городская сеть)","note":"Оцифровано с рис. 1(b) статьи Frontiers in Built Environment 2024 (CC BY 4.0). Привязка по границе города: медианное расхождение 281 м, 90-й перцентиль 913 м."}},{"type":"Feature","geometry":{"type":"LineString","coordinates":[[76.92058,43.09929],[76.93037,43.10347],[76.93419,43.09623],[76.93054,43.09536],[76.9229,43.09185]]},"properties":{"src":"city","name":"Разлом (городская сеть)","note":"Оцифровано с рис. 1(b) статьи Frontiers in Built Environment 2024 (CC BY 4.0). Привязка по границе города: медианное расхождение 281 м, 90-й перцентиль 913 м."}},{"type":"Feature","geometry":{"type":"LineString","coordinates":[[76.78888,43.10092],[76.79127,43.10245],[76.78459,43.09885],[76.77839,43.09567],[76.78277,43.0867],[76.80344,43.08921],[76.8079,43.08998],[76.82602,43.09285],[76.83127,43.09379],[76.84243,43.09496],[76.85538,43.09579],[76.86325,43.09673]]},"properties":{"src":"city","name":"Разлом (городская сеть)","note":"Оцифровано с рис. 1(b) статьи Frontiers in Built Environment 2024 (CC BY 4.0). Привязка по границе города: медианное расхождение 281 м, 90-й перцентиль 913 м."}},{"type":"Feature","geometry":{"type":"LineString","coordinates":[[77.05648,43.02553],[77.05687,43.02347],[77.06899,43.03402],[77.08452,43.08525]]},"properties":{"src":"city","name":"Разлом (городская сеть)","note":"Оцифровано с рис. 1(b) статьи Frontiers in Built Environment 2024 (CC BY 4.0). Привязка по границе города: медианное расхождение 281 м, 90-й перцентиль 913 м."}},{"type":"Feature","geometry":{"type":"LineString","coordinates":[[76.84675,43.06559],[76.85222,43.06843],[76.8494,43.0675],[76.85701,43.06893],[76.87033,43.07767]]},"properties":{"src":"city","name":"Разлом (городская сеть)","note":"Оцифровано с рис. 1(b) статьи Frontiers in Built Environment 2024 (CC BY 4.0). Привязка по границе города: медианное расхождение 281 м, 90-й перцентиль 913 м."}},{"type":"Feature","geometry":{"type":"LineString","coordinates":[[76.92737,43.07331],[76.92993,43.07405],[76.92548,43.07095],[76.91883,43.06668],[76.91351,43.06647],[76.90223,43.05575],[76.8864,43.05047],[76.87358,43.04553],[76.86434,43.0431],[76.85082,43.03792],[76.84265,43.03575],[76.83906,43.03466],[76.82512,43.03117],[76.81305,43.02802],[76.80698,43.02674],[76.80175,43.02583],[76.78536,43.0219],[76.7827,43.0216]]},"properties":{"src":"city","name":"Разлом (городская сеть)","note":"Оцифровано с рис. 1(b) статьи Frontiers in Built Environment 2024 (CC BY 4.0). Привязка по границе города: медианное расхождение 281 м, 90-й перцентиль 913 м."}},{"type":"Feature","geometry":{"type":"LineString","coordinates":[[77.03165,43.06423],[77.04571,43.06539],[77.04894,43.06531],[77.05616,43.06492]]},"properties":{"src":"city","name":"Разлом (городская сеть)","note":"Оцифровано с рис. 1(b) статьи Frontiers in Built Environment 2024 (CC BY 4.0). Привязка по границе города: медианное расхождение 281 м, 90-й перцентиль 913 м."}},{"type":"Feature","geometry":{"type":"LineString","coordinates":[[76.83867,43.0618],[76.83119,43.05823],[76.82535,43.05335],[76.81889,43.04895],[76.8175,43.04681],[76.80625,43.03808],[76.79729,43.03027],[76.79685,43.02732],[76.79054,43.02217]]},"properties":{"src":"city","name":"Разлом (городская сеть)","note":"Оцифровано с рис. 1(b) статьи Frontiers in Built Environment 2024 (CC BY 4.0). Привязка по границе города: медианное расхождение 281 м, 90-й перцентиль 913 м."}},{"type":"Feature","geometry":{"type":"LineString","coordinates":[[76.95026,43.03555],[76.94402,43.03242],[76.95919,43.04696],[76.96834,43.05082]]},"properties":{"src":"city","name":"Разлом (городская сеть)","note":"Оцифровано с рис. 1(b) статьи Frontiers in Built Environment 2024 (CC BY 4.0). Привязка по границе города: медианное расхождение 281 м, 90-й перцентиль 913 м."}},{"type":"Feature","geometry":{"type":"LineString","coordinates":[[76.97476,43.04818],[77.05447,43.03656],[77.05611,43.0331],[77.06729,43.03421],[77.0726,43.02736],[77.07865,43.02783],[77.07008,43.02646],[77.06124,43.02534],[77.04577,43.02349],[77.03366,43.02167],[77.0285,43.02054],[77.01546,43.01972],[77.01021,43.019],[77.00763,43.0183],[77.00073,43.0177],[76.99826,43.01686],[76.98438,43.01579]]},"properties":{"src":"city","name":"Разлом (городская сеть)","note":"Оцифровано с рис. 1(b) статьи Frontiers in Built Environment 2024 (CC BY 4.0). Привязка по границе города: медианное расхождение 281 м, 90-й перцентиль 913 м."}},{"type":"Feature","geometry":{"type":"LineString","coordinates":[[76.98185,43.0187],[76.97631,43.01549],[76.99334,43.02863],[76.99775,43.0331]]},"properties":{"src":"city","name":"Разлом (городская сеть)","note":"Оцифровано с рис. 1(b) статьи Frontiers in Built Environment 2024 (CC BY 4.0). Привязка по границе города: медианное расхождение 281 м, 90-й перцентиль 913 м."}},{"type":"Feature","geometry":{"type":"LineString","coordinates":[[77.08547,43.02491],[77.08385,43.02281],[77.07783,43.01877],[77.07511,43.01689],[77.07258,43.01548]]},"properties":{"src":"city","name":"Разлом (городская сеть)","note":"Оцифровано с рис. 1(b) статьи Frontiers in Built Environment 2024 (CC BY 4.0). Привязка по границе города: медианное расхождение 281 м, 90-й перцентиль 913 м."}},{"type":"Feature","geometry":{"type":"LineString","coordinates":[[76.85877,43.00956],[76.86131,43.01095],[76.84926,43.00695],[76.84155,43.00479],[76.82769,43.00014],[76.82079,42.9981],[76.81746,42.99657],[76.80886,42.99314]]},"properties":{"src":"city","name":"Разлом (городская сеть)","note":"Оцифровано с рис. 1(b) статьи Frontiers in Built Environment 2024 (CC BY 4.0). Привязка по границе города: медианное расхождение 281 м, 90-й перцентиль 913 м."}},{"type":"Feature","geometry":{"type":"LineString","coordinates":[[77.05086,43.00707],[77.05372,43.00766],[77.04819,43.00643],[77.04567,43.00563],[77.04235,43.00526],[77.03968,43.00492],[77.03714,43.00407],[77.02841,43.00154],[77.02062,42.99957],[77.01128,42.99715],[77.00259,42.99574],[76.99376,42.99445],[76.98586,42.99307],[76.98239,42.99174],[76.97309,42.99072],[76.97043,42.99046],[76.96355,42.99028],[76.95835,42.99019],[76.94598,42.99842],[76.93792,42.99438],[76.95067,43.00249],[76.95434,43.00314]]},"properties":{"src":"city","name":"Разлом (городская сеть)","note":"Оцифровано с рис. 1(b) статьи Frontiers in Built Environment 2024 (CC BY 4.0). Привязка по границе города: медианное расхождение 281 м, 90-й перцентиль 913 м."}}]}